0 FENGYUN 1C DEB
1 37591U 99025EKK 13284.22905222  .00002879  00000-0  19145-2 0  1925
2 37591 098.4440 083.5481 0158353 110.2004 251.5631 13.96039625232440
0 FENGYUN 1C DEB
1 37591U 99025EKK 13288.24262248  .00002852  00000-0  18976-2 0  1938
2 37591 098.4463 087.2305 0157757 099.4226 262.4930 13.96062726233006
0 FENGYUN 1C DEB
1 37591U 99025EKK 13289.67601512  .00003143  00000-0  20927-2 0  1941
2 37591 098.4379 088.5429 0155965 094.2548 267.7623 13.96078178233209
0 FENGYUN 1C DEB
1 37591U 99025EKK 13290.67933957  .00004138  00000-0  27166-2 0  1952
2 37591 098.4498 089.4698 0157982 093.0244 268.9473 13.96096557233342
0 FENGYUN 1C DEB
1 37591U 99025EKK 13290.67935672  .00003235  00000-0  21591-2 0  1951
2 37591 098.4405 089.4535 0153699 091.6534 270.3149 13.96087246233349
0 FENGYUN 1C DEB
1 37591U 99025EKK 13291.25268642  .00003370  00000-0  22406-2 0  1969
2 37591 098.4434 089.9898 0156197 090.9806 270.9526 13.96093104233422
0 FENGYUN 1C DEB
1 37591U 99025EKK 13293.25938153  .00003539  00000-0  23460-2 0  1971
2 37591 098.4437 091.8359 0157863 084.7852 277.1370 13.96109864233700
0 FENGYUN 1C DEB
1 37591U 99025EKK 13295.26605182  .00003719  00000-0  24629-2 0  1986
2 37591 098.4480 093.6767 0157868 079.3466 282.5932 13.96127650233984
